start=new Date('2022-03-05T00:00:00.000Z').valueOf();
sats=[{"RA_OF_ASC_NODE":"247.0636","TLE_LINE2":"2 45398  53.0522 247.0636 0001594  86.5495 273.5676 15.06409782108829","NORAD_CAT_ID":"45398","DECAY_DATE":null,"EPHEMERIS_TYPE":"0","PERIOD":"95.592","OBJECT_NAME":"STARLINK-1312","MEAN_ANOMALY":"273.5676","OBJECT_ID":"2020-019AQ","CENTER_NAME":"EARTH","ECCENTRICITY":"0.00015940","LAUNCH_DATE":"2020-03-18","EPOCH":"2022-03-04T20:09:41.410368","PERIAPSIS":"546.080","SITE":"AFETR","CLASSIFICATION_TYPE":"U","GP_ID":"197902841","ELEMENT_SET_NO":"999","MEAN_MOTION_DOT":"0.00005426","RCS_SIZE":"LARGE","TLE_LINE1":"1 45398U 20019AQ  22063.84006262  .00005426  00000-0  38275-3 0  9997","TIME_SYSTEM":"UTC","MEAN_MOTION":"15.06409782","OBJECT_TYPE":"PAYLOAD","BSTAR":"0.00038275000000","APOAPSIS":"548.287","REF_FRAME":"TEME","MEAN_ELEMENT_THEORY":"SGP4","FILE":"3344863","REV_AT_EPOCH":"10882","SEMIMAJOR_AXIS":"6925.319","COUNTRY_CODE":"US","INCLINATION":"53.0522","MEAN_MOTION_DDOT":"0.0000000000000","ARG_OF_PERICENTER":"86.5495"},{"CLASSIFICATION_TYPE":"U","SITE":"AFETR","PERIAPSIS":"546.046","EPOCH":"2022-03-04T17:58:18.721056","LAUNCH_DATE":"2020-03-18","ECCENTRICITY":"0.00016620","MEAN_ANOMALY":"286.9030","CENTER_NAME":"EARTH","OBJECT_ID":"2020-019AR","OBJECT_NAME":"STARLINK-1255","PERIOD":"95.592","EPHEMERIS_TYPE":"0","DECAY_DATE":null,"NORAD_CAT_ID":"45399","TLE_LINE2":"2 45399  53.0536 237.4759 0001662  73.2141 286.9030 15.06405338109007","RA_OF_ASC_NODE":"237.4759","ARG_OF_PERICENTER":"73.2141","MEAN_MOTION_DDOT":"0.0000000000000","COUNTRY_CODE":"US","INCLINATION":"53.0536","SEMIMAJOR_AXIS":"6925.332","REV_AT_EPOCH":"10900","FILE":"3344863","APOAPSIS":"548.348","REF_FRAME":"TEME","MEAN_ELEMENT_THEORY":"SGP4","BSTAR":"0.00002362800000","OBJECT_TYPE":"PAYLOAD","MEAN_MOTION":"15.06405338","TLE_LINE1":"1 45399U 20019AR  22063.74882779  .00000070  00000-0  23628-4 0  9999","TIME_SYSTEM":"UTC","RCS_SIZE":"LARGE","MEAN_MOTION_DOT":"0.00000070","ELEMENT_SET_NO":"999","GP_ID":"197903084"},{"TLE_LINE2":"2 45400  53.0523 236.8296 0001618  71.6764 288.4401 15.06399924108954","RA_OF_ASC_NODE":"236.8296","NORAD_CAT_ID":"45400","DECAY_DATE":null,"EPHEMERIS_TYPE":"0","PERIOD":"95.592","ECCENTRICITY":"0.00016180","MEAN_ANOMALY":"288.4401","OBJECT_ID":"2020-019AS","OBJECT_NAME":"STARLINK-1213","CENTER_NAME":"EARTH","EPOCH":"2022-03-04T21:30:38.220480","LAUNCH_DATE":"2020-03-18","CLASSIFICATION_TYPE":"U","SITE":"AFETR","PERIAPSIS":"546.093","GP_ID":"197901840","MEAN_MOTION_DOT":"0.00000104","ELEMENT_SET_NO":"999","RCS_SIZE":"LARGE","OBJECT_TYPE":"PAYLOAD","MEAN_MOTION":"15.06399924","TLE_LINE1":"1 45400U 20019AS  22063.89627570  .00000104  00000-0  25896-4 0  9991","TIME_SYSTEM":"UTC","FILE":"3344863","REF_FRAME":"TEME","APOAPSIS":"548.334","MEAN_ELEMENT_THEORY":"SGP4","BSTAR":"0.00002589600000","REV_AT_EPOCH":"10895","MEAN_MOTION_DDOT":"0.0000000000000","COUNTRY_CODE":"US","INCLINATION":"53.0523","SEMIMAJOR_AXIS":"6925.349","ARG_OF_PERICENTER":"71.6764"},{"OBJECT_ID":"2020-019AT","MEAN_ANOMALY":"284.9659","CENTER_NAME":"EARTH","OBJECT_NAME":"STARLINK-1256","ECCENTRICITY":"0.00016280","PERIOD":"95.592","SITE":"AFETR","CLASSIFICATION_TYPE":"U","PERIAPSIS":"546.103","EPOCH":"2022-03-04T18:14:14.688672","LAUNCH_DATE":"2020-03-18","NORAD_CAT_ID":"45401","TLE_LINE2":"2 45401  53.0542 237.4348 0001628  75.1510 284.9659 15.06394459109001","RA_OF_ASC_NODE":"237.4348","EPHEMERIS_TYPE":"0","DECAY_DATE":null,"REV_AT_EPOCH":"10900","FILE":"3344863","BSTAR":"0.00018656000000","MEAN_ELEMENT_THEORY":"SGP4","APOAPSIS":"548.358","REF_FRAME":"TEME","ARG_OF_PERICENTER":"75.1510","COUNTRY_CODE":"US","INCLINATION":"53.0542","MEAN_MOTION_DDOT":"0.0000000000000","SEMIMAJOR_AXIS":"6925.366","MEAN_MOTION_DOT":"0.00002498","ELEMENT_SET_NO":"999","GP_ID":"197902090","MEAN_MOTION":"15.06394459","OBJECT_TYPE":"PAYLOAD","TIME_SYSTEM":"UTC","TLE_LINE1":"1 45401U 20019AT  22063.75989223  .00002498  00000-0  18656-3 0  9996","RCS_SIZE":"LARGE"},{"FILE":"3344863","BSTAR":"0.00014971000000","APOAPSIS":"548.205","MEAN_ELEMENT_THEORY":"SGP4","REF_FRAME":"TEME","REV_AT_EPOCH":"10901","INCLINATION":"53.0541","COUNTRY_CODE":"US","MEAN_MOTION_DDOT":"0.0000000000000","SEMIMAJOR_AXIS":"6925.333","ARG_OF_PERICENTER":"88.5209","GP_ID":"197903341","MEAN_MOTION_DOT":"0.00001949","ELEMENT_SET_NO":"999","RCS_SIZE":"LARGE","OBJECT_TYPE":"PAYLOAD","MEAN_MOTION":"15.06404929","TIME_SYSTEM":"UTC","TLE_LINE1":"1 45402U 20019AU  22063.75619984  .00001949  00000-0  14971-3 0  9997","PERIOD":"95.592","OBJECT_ID":"2020-019AU","MEAN_ANOMALY":"271.5946","CENTER_NAME":"EARTH","OBJECT_NAME":"STARLINK-1257","ECCENTRICITY":"0.00014540","EPOCH":"2022-03-04T18:08:55.666176","LAUNCH_DATE":"2020-03-18","SITE":"AFETR","CLASSIFICATION_TYPE":"U","PERIAPSIS":"546.192","TLE_LINE2":"2 45402  53.0541 237.4441 0001454  88.5209 271.5946 15.06404929109011","RA_OF_ASC_NODE":"237.4441","NORAD_CAT_ID":"45402","DECAY_DATE":null,"EPHEMERIS_TYPE":"0"},{"DECAY_DATE":null,"EPHEMERIS_TYPE":"0","TLE_LINE2":"2 45403  53.0546 237.3928 0001414  76.3684 283.7462 15.06403757109009","RA_OF_ASC_NODE":"237.3928","NORAD_CAT_ID":"45403","EPOCH":"2022-03-04T18:30:09.536544","LAUNCH_DATE":"2020-03-18","SITE":"AFETR","CLASSIFICATION_TYPE":"U","PERIAPSIS":"546.223","PERIOD":"95.592","OBJECT_NAME":"STARLINK-1259","MEAN_ANOMALY":"283.7462","OBJECT_ID":"2020-019AV","CENTER_NAME":"EARTH","ECCENTRICITY":"0.00014140","RCS_SIZE":"LARGE","MEAN_MOTION":"15.06403757","OBJECT_TYPE":"PAYLOAD","TLE_LINE1":"1 45403U 20019AV  22063.77094371 -.00000260  00000-0  14633-5 0  9990","TIME_SYSTEM":"UTC","GP_ID":"197903584","MEAN_MOTION_DOT":"-0.00000260","ELEMENT_SET_NO":"999","COUNTRY_CODE":"US","INCLINATION":"53.0546","MEAN_MOTION_DDOT":"0.0000000000000","SEMIMAJOR_AXIS":"6925.337","ARG_OF_PERICENTER":"76.3684","FILE":"3344863","BSTAR":"0.00000146330000","MEAN_ELEMENT_THEORY":"SGP4","APOAPSIS":"548.181","REF_FRAME":"TEME","REV_AT_EPOCH":"10900"},{"NORAD_CAT_ID":"45404","RA_OF_ASC_NODE":"237.3206","TLE_LINE2":"2 45404  53.0553 237.3206 0001622  73.3259 286.7908 15.06396025108919","EPHEMERIS_TYPE":"0","DECAY_DATE":null,"ECCENTRICITY":"0.00016220","CENTER_NAME":"EARTH","MEAN_ANOMALY":"286.7908","OBJECT_ID":"2020-019AW","OBJECT_NAME":"STARLINK-1260","PERIOD":"95.592","PERIAPSIS":"546.102","CLASSIFICATION_TYPE":"U","SITE":"AFETR","LAUNCH_DATE":"2020-03-18","EPOCH":"2022-03-04T18:46:05.390976","ELEMENT_SET_NO":"999","MEAN_MOTION_DOT":"0.00001961","GP_ID":"197902340","TLE_LINE1":"1 45404U 20019AW  22063.78200684  .00001961  00000-0  15054-3 0  9992","TIME_SYSTEM":"UTC","MEAN_MOTION":"15.06396025","OBJECT_TYPE":"PAYLOAD","RCS_SIZE":"LARGE","REV_AT_EPOCH":"10891","REF_FRAME":"TEME","APOAPSIS":"548.349","MEAN_ELEMENT_THEORY":"SGP4","BSTAR":"0.00015054000000","FILE":"3344863","ARG_OF_PERICENTER":"73.3259","SEMIMAJOR_AXIS":"6925.361","MEAN_MOTION_DDOT":"0.0000000000000","INCLINATION":"53.0553","COUNTRY_CODE":"US"},{"PERIOD":"95.592","CENTER_NAME":"EARTH","MEAN_ANOMALY":"276.1062","OBJECT_NAME":"STARLINK-1263","OBJECT_ID":"2020-019AX","ECCENTRICITY":"0.00013620","EPOCH":"2022-03-04T21:35:55.623840","LAUNCH_DATE":"2020-03-18","SITE":"AFETR","CLASSIFICATION_TYPE":"U","PERIAPSIS":"546.256","TLE_LINE2":"2 45405  53.0527 236.7986 0001362  84.0082 276.1062 15.06404837108930","RA_OF_ASC_NODE":"236.7986","NORAD_CAT_ID":"45405","DECAY_DATE":null,"EPHEMERIS_TYPE":"0","FILE":"3344863","BSTAR":"0.00018328000000","APOAPSIS":"548.142","MEAN_ELEMENT_THEORY":"SGP4","REF_FRAME":"TEME","REV_AT_EPOCH":"10893","INCLINATION":"53.0527","COUNTRY_CODE":"US","MEAN_MOTION_DDOT":"0.0000000000000","SEMIMAJOR_AXIS":"6925.334","ARG_OF_PERICENTER":"84.0082","GP_ID":"197902590","MEAN_MOTION_DOT":"0.00002450","ELEMENT_SET_NO":"999","RCS_SIZE":"LARGE","MEAN_MOTION":"15.06404837","OBJECT_TYPE":"PAYLOAD","TIME_SYSTEM":"UTC","TLE_LINE1":"1 45405U 20019AX  22063.89994935  .00002450  00000-0  18328-3 0  9995"},{"EPOCH":"2022-03-04T20:11:00.727296","LAUNCH_DATE":"2020-03-18","SITE":"AFETR","CLASSIFICATION_TYPE":"U","PERIAPSIS":"546.154","PERIOD":"95.592","MEAN_ANOMALY":"281.7944","OBJECT_NAME":"STARLINK-1265","CENTER_NAME":"EARTH","OBJECT_ID":"2020-019AY","ECCENTRICITY":"0.00015280","DECAY_DATE":null,"EPHEMERIS_TYPE":"0","TLE_LINE2":"2 45406  53.0538 237.0575 0001528  78.3217 281.7944 15.06400571108922","RA_OF_ASC_NODE":"237.0575","NORAD_CAT_ID":"45406","COUNTRY_CODE":"US","INCLINATION":"53.0538","MEAN_MOTION_DDOT":"0.0000000000000","SEMIMAJOR_AXIS":"6925.347","ARG_OF_PERICENTER":"78.3217","FILE":"3344863","BSTAR":"0.00005922700000","APOAPSIS":"548.270","MEAN_ELEMENT_THEORY":"SGP4","REF_FRAME":"TEME","REV_AT_EPOCH":"10892","RCS_SIZE":"LARGE","MEAN_MOTION":"15.06400571","OBJECT_TYPE":"PAYLOAD","TLE_LINE1":"1 45406U 20019AY  22063.84098064  .00000601  00000-0  59227-4 0  9999","TIME_SYSTEM":"UTC","GP_ID":"197902842","MEAN_MOTION_DOT":"0.00000601","ELEMENT_SET_NO":"999"},{"PERIOD":"95.593","CENTER_NAME":"EARTH","MEAN_ANOMALY":"276.6592","OBJECT_ID":"2020-019AZ","OBJECT_NAME":"STARLINK-1275","ECCENTRICITY":"0.00015000","LAUNCH_DATE":"2020-03-18","EPOCH":"2022-03-04T18:55:21.626400","PERIAPSIS":"546.215","SITE":"AFETR","CLASSIFICATION_TYPE":"U","RA_OF_ASC_NODE":"237.3029","TLE_LINE2":"2 45407  53.0548 237.3029 0001500  83.4567 276.6592 15.06386945108915","NORAD_CAT_ID":"45407","DECAY_DATE":null,"EPHEMERIS_TYPE":"0","BSTAR":"0.00002443700000","APOAPSIS":"548.292","REF_FRAME":"TEME","MEAN_ELEMENT_THEORY":"SGP4","FILE":"3344863","REV_AT_EPOCH":"10891","SEMIMAJOR_AXIS":"6925.389","INCLINATION":"53.0548","COUNTRY_CODE":"US","MEAN_MOTION_DDOT":"0.0000000000000","ARG_OF_PERICENTER":"83.4567","GP_ID":"197903085","ELEMENT_SET_NO":"999","MEAN_MOTION_DOT":"0.00000082","RCS_SIZE":"LARGE","TIME_SYSTEM":"UTC","TLE_LINE1":"1 45407U 20019AZ  22063.78844475  .00000082  00000-0  24437-4 0  9996","MEAN_MOTION":"15.06386945","OBJECT_TYPE":"PAYLOAD"}];
